[{"OBJECT_NAME":"STARLINK-35018","OBJECT_ID":"2025-184R","EPOCH":"2026-03-09T16:45:02.727072","MEAN_MOTION":15.05656306,"ECCENTRICITY":0.00014479,"INCLINATION":97.6039,"RA_OF_ASC_NODE":122.6932,"ARG_OF_PERICENTER":84.7291,"MEAN_ANOMALY":275.4101,"EPHEMERIS_TYPE":0,"CLASSIFICATION_TYPE":"U","NORAD_CAT_ID":65288,"ELEMENT_SET_NO":999,"REV_AT_EPOCH":3130,"BSTAR":0.00048497413,"MEAN_MOTION_DOT":6.945e-5,"MEAN_MOTION_DDOT":0},{"OBJECT_NAME":"ALOUETTE 2","OBJECT_ID":"1965-098A","EPOCH":"2026-03-09T21:10:26.401728","MEAN_MOTION":12.28241401,"ECCENTRICITY":0.13308103,"INCLINATION":79.8058,"RA_OF_ASC_NODE":1.1474,"ARG_OF_PERICENTER":73.8807,"MEAN_ANOMALY":300.4362,"EPHEMERIS_TYPE":0,"CLASSIFICATION_TYPE":"U","NORAD_CAT_ID":1804,"ELEMENT_SET_NO":999,"REV_AT_EPOCH":66708,"BSTAR":0.00035342687,"MEAN_MOTION_DOT":1.098e-5,"MEAN_MOTION_DDOT":0}]
